{
  "type": "FeatureCollection",
  "features": [
    {
      "type": "Feature",
      "properties": {
        "norad_id": 66909,
        "name": "SILVERSAT",
        "group": "stations",
        "lat": -3.119680819191202,
        "lon": -55.40414328574163,
        "alt_km": 410.41683648696016,
        "timestamp": "2025-12-16T19:34:23.037918+00:00",
        "meta_object_name": "SILVERSAT",
        "meta_object_id": "1998-067XV",
        "meta_epoch": "2025-12-15T14:58:08.164704",
        "meta_mean_motion": 15.52037636,
        "meta_eccentricity": 0.00041166,
        "meta_inclination": 51.6296,
        "meta_ra_of_asc_node": 128.048,
        "meta_arg_of_pericenter": 244.867,
        "meta_mean_anomaly": 115.1892,
        "meta_ephemeris_type": 0,
        "meta_classification_type": "U",
        "meta_norad_cat_id": 66909,
        "meta_element_set_no": 999,
        "meta_rev_at_epoch": 206,
        "meta_bstar": 0.00079995468,
        "meta_mean_motion_dot": 0.00048941,
        "meta_mean_motion_ddot": 0,
        "tle_line1": "1 66909U 98067XV  25349.62370561  .00048941  00000+0  79995-3 0  9990",
        "tle_line2": "2 66909  51.6296 128.0480 0004116 244.8670 115.1892 15.52037636  2060"
      },
      "geometry": {
        "type": "Point",
        "coordinates": [
          -55.40414328574163,
          -3.119680819191202
        ]
      }
    },
    {
      "type": "Feature",
      "properties": {
        "norad_id": 66910,
        "name": "1998-067XW",
        "group": "stations",
        "lat": -10.683979000224461,
        "lon": -49.30203434697658,
        "alt_km": 409.5903344766575,
        "timestamp": "2025-12-16T19:34:23.037932+00:00",
        "meta_object_name": "1998-067XW",
        "meta_object_id": "1998-067XW",
        "meta_epoch": "2025-12-15T16:28:26.170464",
        "meta_mean_motion": 15.52120253,
        "meta_eccentricity": 0.00047674,
        "meta_inclination": 51.6293,
        "meta_ra_of_asc_node": 127.717,
        "meta_arg_of_pericenter": 223.5527,
        "meta_mean_anomaly": 136.5086,
        "meta_ephemeris_type": 0,
        "meta_classification_type": "U",
        "meta_norad_cat_id": 66910,
        "meta_element_set_no": 999,
        "meta_rev_at_epoch": 207,
        "meta_bstar": 0.00072313444,
        "meta_mean_motion_dot": 0.00044307,
        "meta_mean_motion_ddot": 0,
        "tle_line1": "1 66910U 98067XW  25349.68641401  .00044307  00000+0  72313-3 0  9991",
        "tle_line2": "2 66910  51.6293 127.7170 0004767 223.5527 136.5086 15.52120253  2079"
      },
      "geometry": {
        "type": "Point",
        "coordinates": [
          -49.30203434697658,
          -10.683979000224461
        ]
      }
    },
    {
      "type": "Feature",
      "properties": {
        "norad_id": 66911,
        "name": "1998-067XX",
        "group": "stations",
        "lat": -17.209742741263053,
        "lon": -43.71076236318377,
        "alt_km": 409.2367297838564,
        "timestamp": "2025-12-16T19:34:23.037942+00:00",
        "meta_object_name": "1998-067XX",
        "meta_object_id": "1998-067XX",
        "meta_epoch": "2025-12-15T13:21:12.839040",
        "meta_mean_motion": 15.52435494,
        "meta_eccentricity": 0.00044725,
        "meta_inclination": 51.6293,
        "meta_ra_of_asc_node": 128.3487,
        "meta_arg_of_pericenter": 225.8375,
        "meta_mean_anomaly": 134.2248,
        "meta_ephemeris_type": 0,
        "meta_classification_type": "U",
        "meta_norad_cat_id": 66911,
        "meta_element_set_no": 999,
        "meta_rev_at_epoch": 204,
        "meta_bstar": 0.00085850941,
        "meta_mean_motion_dot": 0.00053353,
        "meta_mean_motion_ddot": 0,
        "tle_line1": "1 66911U 98067XX  25349.55639860  .00053353  00000+0  85851-3 0  9996",
        "tle_line2": "2 66911  51.6293 128.3487 0004472 225.8375 134.2248 15.52435494  2045"
      },
      "geometry": {
        "type": "Point",
        "coordinates": [
          -43.71076236318377,
          -17.209742741263053
        ]
      }
    },
    {
      "type": "Feature",
      "properties": {
        "norad_id": 66912,
        "name": "1998-067XY",
        "group": "stations",
        "lat": 10.755805187289027,
        "lon": -66.49853336366604,
        "alt_km": 410.91086387645373,
        "timestamp": "2025-12-16T19:34:23.037953+00:00",
        "meta_object_name": "1998-067XY",
        "meta_object_id": "1998-067XY",
        "meta_epoch": "2025-12-15T15:02:01.063680",
        "meta_mean_motion": 15.51430232,
        "meta_eccentricity": 0.00042771,
        "meta_inclination": 51.6298,
        "meta_ra_of_asc_node": 128.066,
        "meta_arg_of_pericenter": 239.2298,
        "meta_mean_anomaly": 120.827,
        "meta_ephemeris_type": 0,
        "meta_classification_type": "U",
        "meta_norad_cat_id": 66912,
        "meta_element_set_no": 999,
        "meta_rev_at_epoch": 205,
        "meta_bstar": 0.00059034446,
        "meta_mean_motion_dot": 0.00035151,
        "meta_mean_motion_ddot": 0,
        "tle_line1": "1 66912U 98067XY  25349.62640120  .00035151  00000+0  59034-3 0  9996",
        "tle_line2": "2 66912  51.6298 128.0660 0004277 239.2298 120.8270 15.51430232  2058"
      },
      "geometry": {
        "type": "Point",
        "coordinates": [
          -66.49853336366604,
          10.755805187289027
        ]
      }
    }
  ]
}